{"type": "FeatureCollection", "features": [{"type": "Feature", "properties": {"norad_id": 24946, "name": "IRIDIUM 33", "group": "iridium-33-debris", "lat": -21.11209495176752, "lon": -111.8168318182938, "alt_km": 775.1612670203804, "timestamp": "2025-12-16T03:53:27.440009+00:00", "meta": {"OBJECT_NAME": "IRIDIUM 33", "OBJECT_ID": "1997-051C", "EPOCH": "2025-12-15T06:52:30.485280", "MEAN_MOTION": 14.35039285, "ECCENTRICITY": 0.00073309, "INCLINATION": 86.3869, "RA_OF_ASC_NODE": 67.1527, "ARG_OF_PERICENTER": 191.4448, "MEAN_ANOMALY": 168.6583, "EPHEMERIS_TYPE": 0, "CLASSIFICATION_TYPE": "U", "NORAD_CAT_ID": 24946, "ELEMENT_SET_NO": 999, "REV_AT_EPOCH": 47871, "BSTAR": 0.00011903931, "MEAN_MOTION_DOT": 3.59e-06, "MEAN_MOTION_DDOT": 0}, "tle": {"line1": "1 24946U 97051C   25349.28646395  .00000359  00000+0  11904-3 0  9997", "line2": "2 24946  86.3869  67.1527 0007330 191.4448 168.6583 14.35039285478713"}}, "geometry": {"type": "Point", "coordinates": [-111.8168318182938, -21.11209495176752]}}, {"type": "Feature", "properties": {"norad_id": 33773, "name": "IRIDIUM 33 DEB", "group": "iridium-33-debris", "lat": -78.73783341595642, "lon": -102.43427640449059, "alt_km": 760.136095943918, "timestamp": "2025-12-16T03:53:27.440036+00:00", "meta": {"OBJECT_NAME": "IRIDIUM 33 DEB", "OBJECT_ID": "1997-051L", "EPOCH": "2025-12-15T06:43:35.458464", "MEAN_MOTION": 14.43262766, "ECCENTRICITY": 0.0012715, "INCLINATION": 86.4007, "RA_OF_ASC_NODE": 59.5129, "ARG_OF_PERICENTER": 138.9199, "MEAN_ANOMALY": 221.2961, "EPHEMERIS_TYPE": 0, "CLASSIFICATION_TYPE": "U", "NORAD_CAT_ID": 33773, "ELEMENT_SET_NO": 999, "REV_AT_EPOCH": 88384, "BSTAR": 0.00032432546, "MEAN_MOTION_DOT": 1.112e-05, "MEAN_MOTION_DDOT": 0}, "tle": {"line1": "1 33773U 97051L   25349.28027151  .00001112  00000+0  32433-3 0  9996", "line2": "2 33773  86.4007  59.5129 0012715 138.9199 221.2961 14.43262766883842"}}, "geometry": {"type": "Point", "coordinates": [-102.43427640449059, -78.73783341595642]}}, {"type": "Feature", "properties": {"norad_id": 33775, "name": "IRIDIUM 33 DEB", "group": "iridium-33-debris", "lat": -39.31444319039281, "lon": 45.10754235792203, "alt_km": 770.5594988940911, "timestamp": "2025-12-16T03:53:27.440052+00:00", "meta": {"OBJECT_NAME": "IRIDIUM 33 DEB", "OBJECT_ID": "1997-051N", "EPOCH": "2025-12-15T05:01:00.177312", "MEAN_MOTION": 14.4147387, "ECCENTRICITY": 0.00145595, "INCLINATION": 86.3636, "RA_OF_ASC_NODE": 48.4995, "ARG_OF_PERICENTER": 147.093, "MEAN_ANOMALY": 270.8364, "EPHEMERIS_TYPE": 0, "CLASSIFICATION_TYPE": "U", "NORAD_CAT_ID": 33775, "ELEMENT_SET_NO": 999, "REV_AT_EPOCH": 88176, "BSTAR": 0.00033418916, "MEAN_MOTION_DOT": 1.105e-05, "MEAN_MOTION_DDOT": 0}, "tle": {"line1": "1 33775U 97051N   25349.20902983  .00001105  00000+0  33419-3 0  9992", "line2": "2 33775  86.3636  48.4995 0014559 147.0930 270.8364 14.41473870881765"}}, "geometry": {"type": "Point", "coordinates": [45.10754235792203, -39.31444319039281]}}, {"type": "Feature", "properties": {"norad_id": 33776, "name": "IRIDIUM 33 DEB", "group": "iridium-33-debris", "lat": 29.340964450225098, "lon": -102.68697432605306, "alt_km": 753.7678307425012, "timestamp": "2025-12-16T03:53:27.440066+00:00", "meta": {"OBJECT_NAME": "IRIDIUM 33 DEB", "OBJECT_ID": "1997-051P", "EPOCH": "2025-12-15T07:25:59.463264", "MEAN_MOTION": 14.3823969, "ECCENTRICITY": 0.00146572, "INCLINATION": 86.4038, "RA_OF_ASC_NODE": 79.6968, "ARG_OF_PERICENTER": 181.8615, "MEAN_ANOMALY": 238.0359, "EPHEMERIS_TYPE": 0, "CLASSIFICATION_TYPE": "U", "NORAD_CAT_ID": 33776, "ELEMENT_SET_NO": 999, "REV_AT_EPOCH": 88119, "BSTAR": 0.00029251877, "MEAN_MOTION_DOT": 9.09e-06, "MEAN_MOTION_DDOT": 0}, "tle": {"line1": "1 33776U 97051P   25349.30971601  .00000909  00000+0  29252-3 0  9998", "line2": "2 33776  86.4038  79.6968 0014657 181.8615 238.0359 14.38239690881197"}}, "geometry": {"type": "Point", "coordinates": [-102.68697432605306, 29.340964450225098]}}, {"type": "Feature", "properties": {"norad_id": 33777, "name": "IRIDIUM 33 DEB", "group": "iridium-33-debris", "lat": 27.670635180876136, "lon": -148.18770025538686, "alt_km": 705.6927432404282, "timestamp": "2025-12-16T03:53:27.440078+00:00", "meta": {"OBJECT_NAME": "IRIDIUM 33 DEB", "OBJECT_ID": "1997-051Q", "EPOCH": "2025-12-15T09:02:44.030400", "MEAN_MOTION": 14.55635775, "ECCENTRICITY": 0.00053219, "INCLINATION": 86.3789, "RA_OF_ASC_NODE": 34.0566, "ARG_OF_PERICENTER": 236.7349, "MEAN_ANOMALY": 123.3349, "EPHEMERIS_TYPE": 0, "CLASSIFICATION_TYPE": "U", "NORAD_CAT_ID": 33777, "ELEMENT_SET_NO": 999, "REV_AT_EPOCH": 88572, "BSTAR": 0.00062723602, "MEAN_MOTION_DOT": 2.758e-05, "MEAN_MOTION_DDOT": 0}, "tle": {"line1": "1 33777U 97051Q   25349.37689850  .00002758  00000+0  62724-3 0  9993", "line2": "2 33777  86.3789  34.0566 0005321 236.7349 123.3349 14.55635775885722"}}, "geometry": {"type": "Point", "coordinates": [-148.18770025538686, 27.670635180876136]}}, {"type": "Feature", "properties": {"norad_id": 33850, "name": "IRIDIUM 33 DEB", "group": "iridium-33-debris", "lat": -49.978356425685, "lon": 24.3389023676723, "alt_km": 766.7056811935854, "timestamp": "2025-12-16T03:53:27.440090+00:00", "meta": {"OBJECT_NAME": "IRIDIUM 33 DEB", "OBJECT_ID": "1997-051T", "EPOCH": "2025-12-15T03:23:34.994400", "MEAN_MOTION": 14.42150781, "ECCENTRICITY": 0.00124612, "INCLINATION": 86.3417, "RA_OF_ASC_NODE": 29.1471, "ARG_OF_PERICENTER": 153.7451, "MEAN_ANOMALY": 260.0881, "EPHEMERIS_TYPE": 0, "CLASSIFICATION_TYPE": "U", "NORAD_CAT_ID": 33850, "ELEMENT_SET_NO": 999, "REV_AT_EPOCH": 88187, "BSTAR": 0.00030116183, "MEAN_MOTION_DOT": 1.011e-05, "MEAN_MOTION_DDOT": 0}, "tle": {"line1": "1 33850U 97051T   25349.14137725  .00001011  00000+0  30116-3 0  9990", "line2": "2 33850  86.3417  29.1471 0012461 153.7451 260.0881 14.42150781881874"}}, "geometry": {"type": "Point", "coordinates": [24.3389023676723, -49.978356425685]}}, {"type": "Feature", "properties": {"norad_id": 33853, "name": "IRIDIUM 33 DEB", "group": "iridium-33-debris", "lat": 18.922619419702276, "lon": 166.93633017336387, "alt_km": 829.4591923554053, "timestamp": "2025-12-16T03:53:27.440102+00:00", "meta": {"OBJECT_NAME": "IRIDIUM 33 DEB", "OBJECT_ID": "1997-051W", "EPOCH": "2025-12-14T23:46:56.777088", "MEAN_MOTION": 13.99076853, "ECCENTRICITY": 0.0207, "INCLINATION": 85.9995, "RA_OF_ASC_NODE": 348.8243, "ARG_OF_PERICENTER": 228.8378, "MEAN_ANOMALY": 158.8905, "EPHEMERIS_TYPE": 0, "CLASSIFICATION_TYPE": "U", "NORAD_CAT_ID": 33853, "ELEMENT_SET_NO": 999, "REV_AT_EPOCH": 85377, "BSTAR": 0.0015266961, "MEAN_MOTION_DOT": 2.67e-05, "MEAN_MOTION_DDOT": 0}, "tle": {"line1": "1 33853U 97051W   25348.99093492  .00002670  00000+0  15267-2 0  9998", "line2": "2 33853  85.9995 348.8243 0207000 228.8378 158.8905 13.99076853853775"}}, "geometry": {"type": "Point", "coordinates": [166.93633017336387, 18.922619419702276]}}, {"type": "Feature", "properties": {"norad_id": 33860, "name": "IRIDIUM 33 DEB", "group": "iridium-33-debris", "lat": -14.390299780717973, "lon": -153.3468994380422, "alt_km": 678.4984452767285, "timestamp": "2025-12-16T03:53:27.440113+00:00", "meta": {"OBJECT_NAME": "IRIDIUM 33 DEB", "OBJECT_ID": "1997-051AD", "EPOCH": "2025-12-15T09:05:15.964800", "MEAN_MOTION": 14.67404874, "ECCENTRICITY": 0.00071086, "INCLINATION": 86.3831, "RA_OF_ASC_NODE": 26.0699, "ARG_OF_PERICENTER": 348.2033, "MEAN_ANOMALY": 30.0385, "EPHEMERIS_TYPE": 0, "CLASSIFICATION_TYPE": "U", "NORAD_CAT_ID": 33860, "ELEMENT_SET_NO": 999, "REV_AT_EPOCH": 88761, "BSTAR": 0.00075798126, "MEAN_MOTION_DOT": 4.308e-05, "MEAN_MOTION_DDOT": 0}, "tle": {"line1": "1 33860U 97051AD  25349.37865700  .00004308  00000+0  75798-3 0  9994", "line2": "2 33860  86.3831  26.0699 0007108 348.2033  30.0385 14.67404874887616"}}, "geometry": {"type": "Point", "coordinates": [-153.3468994380422, -14.390299780717973]}}, {"type": "Feature", "properties": {"norad_id": 33862, "name": "IRIDIUM 33 DEB", "group": "iridium-33-debris", "lat": -75.07005196270407, "lon": -130.35769473030032, "alt_km": 705.6365218496794, "timestamp": "2025-12-16T03:53:27.440125+00:00", "meta": {"OBJECT_NAME": "IRIDIUM 33 DEB", "OBJECT_ID": "1997-051AF", "EPOCH": "2025-12-15T04:07:50.386944", "MEAN_MOTION": 14.69521451, "ECCENTRICITY": 0.00532191, "INCLINATION": 86.4094, "RA_OF_ASC_NODE": 36.458, "ARG_OF_PERICENTER": 61.0473, "MEAN_ANOMALY": 0.5687, "EPHEMERIS_TYPE": 0, "CLASSIFICATION_TYPE": "U", "NORAD_CAT_ID": 33862, "ELEMENT_SET_NO": 999, "REV_AT_EPOCH": 88859, "BSTAR": 0.00085184927, "MEAN_MOTION_DOT": 5.187e-05, "MEAN_MOTION_DDOT": 0}, "tle": {"line1": "1 33862U 97051AF  25349.17211096  .00005187  00000+0  85185-3 0  9994", "line2": "2 33862  86.4094  36.4580 0053219  61.0473   0.5687 14.69521451888594"}}, "geometry": {"type": "Point", "coordinates": [-130.35769473030032, -75.07005196270407]}}, {"type": "Feature", "properties": {"norad_id": 33866, "name": "IRIDIUM 33 DEB", "group": "iridium-33-debris", "lat": 43.30963714709145, "lon": -91.90971493458115, "alt_km": 723.9720684383165, "timestamp": "2025-12-16T03:53:27.440136+00:00", "meta": {"OBJECT_NAME": "IRIDIUM 33 DEB", "OBJECT_ID": "1997-051AK", "EPOCH": "2025-12-15T07:17:22.424928", "MEAN_MOTION": 14.25284499, "ECCENTRICITY": 0.01146747, "INCLINATION": 86.2998, "RA_OF_ASC_NODE": 91.9508, "ARG_OF_PERICENTER": 153.2563, "MEAN_ANOMALY": 261.8832, "EPHEMERIS_TYPE": 0, "CLASSIFICATION_TYPE": "U", "NORAD_CAT_ID": 33866, "ELEMENT_SET_NO": 999, "REV_AT_EPOCH": 86847, "BSTAR": 0.00054431165, "MEAN_MOTION_DOT": 1.391e-05, "MEAN_MOTION_DDOT": 0}, "tle": {"line1": "1 33866U 97051AK  25349.30373177  .00001391  00000+0  54431-3 0  9995", "line2": "2 33866  86.2998  91.9508 0114674 153.2563 261.8832 14.25284499868471"}}, "geometry": {"type": "Point", "coordinates": [-91.90971493458115, 43.30963714709145]}}]}